{
  "type": "FeatureCollection",
  "features": [
    {
      "type": "Feature",
      "properties": {
        "norad_id": 37238,
        "name": "INTELSAT 17 (IS-17)",
        "group": "intelsat",
        "lat": -0.02640614426643833,
        "lon": -150.61216222473652,
        "alt_km": 35780.49567995079,
        "timestamp": "2025-12-16T03:53:26.726575+00:00",
        "meta_object_name": "INTELSAT 17 (IS-17)",
        "meta_object_id": "2010-065B",
        "meta_epoch": "2025-12-15T05:08:25.609056",
        "meta_mean_motion": 1.00271524,
        "meta_eccentricity": 0.00025383,
        "meta_inclination": 0.0139,
        "meta_ra_of_asc_node": 285.5856,
        "meta_arg_of_pericenter": 342.3716,
        "meta_mean_anomaly": 319.2786,
        "meta_ephemeris_type": 0,
        "meta_classification_type": "U",
        "meta_norad_cat_id": 37238,
        "meta_element_set_no": 999,
        "meta_rev_at_epoch": 5140,
        "meta_bstar": 0,
        "meta_mean_motion_dot": 1.9e-07,
        "meta_mean_motion_ddot": 0,
        "tle_line1": "1 37238U 10065B   25349.21418529  .00000019  00000+0  00000+0 0  9998",
        "tle_line2": "2 37238   0.0139 285.5856 0002538 342.3716 319.2786  1.00271524 51409"
      },
      "geometry": {
        "type": "Point",
        "coordinates": [
          -150.61216222473652,
          -0.02640614426643833
        ]
      }
    },
    {
      "type": "Feature",
      "properties": {
        "norad_id": 37392,
        "name": "INTELSAT 28 (IS-28)",
        "group": "intelsat",
        "lat": 0.6170612977573671,
        "lon": 111.71249364364338,
        "alt_km": 35800.120838304276,
        "timestamp": "2025-12-16T03:53:26.726587+00:00",
        "meta_object_name": "INTELSAT 28 (IS-28)",
        "meta_object_id": "2011-016A",
        "meta_epoch": "2025-12-15T06:23:18.435840",
        "meta_mean_motion": 1.00272741,
        "meta_eccentricity": 0.00036702,
        "meta_inclination": 1.331,
        "meta_ra_of_asc_node": 85.0282,
        "meta_arg_of_pericenter": 183.8509,
        "meta_mean_anomaly": 239.4456,
        "meta_ephemeris_type": 0,
        "meta_classification_type": "U",
        "meta_norad_cat_id": 37392,
        "meta_element_set_no": 999,
        "meta_rev_at_epoch": 5144,
        "meta_bstar": 0,
        "meta_mean_motion_dot": -2.04e-06,
        "meta_mean_motion_ddot": 0,
        "tle_line1": "1 37392U 11016A   25349.26618560 -.00000204  00000+0  00000+0 0  9995",
        "tle_line2": "2 37392   1.3310  85.0282 0003670 183.8509 239.4456  1.00272741 51440"
      },
      "geometry": {
        "type": "Point",
        "coordinates": [
          111.71249364364338,
          0.6170612977573671
        ]
      }
    },
    {
      "type": "Feature",
      "properties": {
        "norad_id": 37834,
        "name": "INTELSAT 18 (IS-18)",
        "group": "intelsat",
        "lat": -0.011240898767620031,
        "lon": -36.58624214576591,
        "alt_km": 35780.5170995212,
        "timestamp": "2025-12-16T03:53:26.726599+00:00",
        "meta_object_name": "INTELSAT 18 (IS-18)",
        "meta_object_id": "2011-056A",
        "meta_epoch": "2025-12-15T08:14:38.804352",
        "meta_mean_motion": 1.00272138,
        "meta_eccentricity": 0.00017164,
        "meta_inclination": 0.0026,
        "meta_ra_of_asc_node": 7.0827,
        "meta_arg_of_pericenter": 274.6372,
        "meta_mean_anomaly": 106.1842,
        "meta_ephemeris_type": 0,
        "meta_classification_type": "U",
        "meta_norad_cat_id": 37834,
        "meta_element_set_no": 999,
        "meta_rev_at_epoch": 5196,
        "meta_bstar": 0,
        "meta_mean_motion_dot": 7.4e-07,
        "meta_mean_motion_ddot": 0,
        "tle_line1": "1 37834U 11056A   25349.34350468  .00000074  00000+0  00000+0 0  9993",
        "tle_line2": "2 37834   0.0026   7.0827 0001716 274.6372 106.1842  1.00272138 51962"
      },
      "geometry": {
        "type": "Point",
        "coordinates": [
          -36.58624214576591,
          -0.011240898767620031
        ]
      }
    },
    {
      "type": "Feature",
      "properties": {
        "norad_id": 38098,
        "name": "INTELSAT 22 (IS-22)",
        "group": "intelsat",
        "lat": -0.018481624703774027,
        "lon": -144.4964681522046,
        "alt_km": 35781.77104263734,
        "timestamp": "2025-12-16T03:53:26.726627+00:00",
        "meta_object_name": "INTELSAT 22 (IS-22)",
        "meta_object_id": "2012-011A",
        "meta_epoch": "2025-12-15T03:27:20.291040",
        "meta_mean_motion": 1.00271332,
        "meta_eccentricity": 0.00017634,
        "meta_inclination": 0.0022,
        "meta_ra_of_asc_node": 357.5465,
        "meta_arg_of_pericenter": 271.696,
        "meta_mean_anomaly": 298.76,
        "meta_ephemeris_type": 0,
        "meta_classification_type": "U",
        "meta_norad_cat_id": 38098,
        "meta_element_set_no": 999,
        "meta_rev_at_epoch": 534,
        "meta_bstar": 0,
        "meta_mean_motion_dot": -3.8e-07,
        "meta_mean_motion_ddot": 0,
        "tle_line1": "1 38098U 12011A   25349.14398485 -.00000038  00000+0  00000+0 0  9998",
        "tle_line2": "2 38098   0.0022 357.5465 0001763 271.6960 298.7600  1.00271332  5340"
      },
      "geometry": {
        "type": "Point",
        "coordinates": [
          -144.4964681522046,
          -0.018481624703774027
        ]
      }
    },
    {
      "type": "Feature",
      "properties": {
        "norad_id": 38356,
        "name": "INTELSAT 19 (IS-19)",
        "group": "intelsat",
        "lat": -0.01358590481071581,
        "lon": -50.55819614908622,
        "alt_km": 35774.980393273225,
        "timestamp": "2025-12-16T03:53:26.726642+00:00",
        "meta_object_name": "INTELSAT 19 (IS-19)",
        "meta_object_id": "2012-030A",
        "meta_epoch": "2025-12-15T07:12:38.676096",
        "meta_mean_motion": 1.00271843,
        "meta_eccentricity": 0.00032414,
        "meta_inclination": 0.01,
        "meta_ra_of_asc_node": 331.6113,
        "meta_arg_of_pericenter": 301.747,
        "meta_mean_anomaly": 85.0232,
        "meta_ephemeris_type": 0,
        "meta_classification_type": "U",
        "meta_norad_cat_id": 38356,
        "meta_element_set_no": 999,
        "meta_rev_at_epoch": 4860,
        "meta_bstar": 0,
        "meta_mean_motion_dot": -3.5e-07,
        "meta_mean_motion_ddot": 0,
        "tle_line1": "1 38356U 12030A   25349.30044764 -.00000035  00000+0  00000+0 0  9999",
        "tle_line2": "2 38356   0.0100 331.6113 0003241 301.7470  85.0232  1.00271843 48602"
      },
      "geometry": {
        "type": "Point",
        "coordinates": [
          -50.55819614908622,
          -0.01358590481071581
        ]
      }
    },
    {
      "type": "Feature",
      "properties": {
        "norad_id": 38740,
        "name": "INTELSAT 20 (IS-20)",
        "group": "intelsat",
        "lat": -0.007344314112257575,
        "lon": -148.08450751044614,
        "alt_km": 35774.78522643875,
        "timestamp": "2025-12-16T03:53:26.726654+00:00",
        "meta_object_name": "INTELSAT 20 (IS-20)",
        "meta_object_id": "2012-043A",
        "meta_epoch": "2025-12-15T05:09:03.048768",
        "meta_mean_motion": 1.00269353,
        "meta_eccentricity": 0.00032754,
        "meta_inclination": 0.0039,
        "meta_ra_of_asc_node": 45.5478,
        "meta_arg_of_pericenter": 136.5346,
        "meta_mean_anomaly": 47.8015,
        "meta_ephemeris_type": 0,
        "meta_classification_type": "U",
        "meta_norad_cat_id": 38740,
        "meta_element_set_no": 999,
        "meta_rev_at_epoch": 4890,
        "meta_bstar": 0,
        "meta_mean_motion_dot": -3e-08,
        "meta_mean_motion_ddot": 0,
        "tle_line1": "1 38740U 12043A   25349.21461862 -.00000003  00000+0  00000+0 0  9997",
        "tle_line2": "2 38740   0.0039  45.5478 0003275 136.5346  47.8015  1.00269353 48909"
      },
      "geometry": {
        "type": "Point",
        "coordinates": [
          -148.08450751044614,
          -0.007344314112257575
        ]
      }
    },
    {
      "type": "Feature",
      "properties": {
        "norad_id": 38749,
        "name": "INTELSAT 21 (IS-21)",
        "group": "intelsat",
        "lat": 0.023776728794650606,
        "lon": 85.40886913572999,
        "alt_km": 35793.30353491305,
        "timestamp": "2025-12-16T03:53:26.726666+00:00",
        "meta_object_name": "INTELSAT 21 (IS-21)",
        "meta_object_id": "2012-045A",
        "meta_epoch": "2025-12-15T06:15:49.153248",
        "meta_mean_motion": 1.00271596,
        "meta_eccentricity": 0.00016707,
        "meta_inclination": 0.0341,
        "meta_ra_of_asc_node": 78.0265,
        "meta_arg_of_pericenter": 185.1926,
        "meta_mean_anomaly": 216.9083,
        "meta_ephemeris_type": 0,
        "meta_classification_type": "U",
        "meta_norad_cat_id": 38749,
        "meta_element_set_no": 999,
        "meta_rev_at_epoch": 4868,
        "meta_bstar": 0,
        "meta_mean_motion_dot": -2.64e-06,
        "meta_mean_motion_ddot": 0,
        "tle_line1": "1 38749U 12045A   25349.26098557 -.00000264  00000+0  00000+0 0  9999",
        "tle_line2": "2 38749   0.0341  78.0265 0001670 185.1926 216.9083  1.00271596 48681"
      },
      "geometry": {
        "type": "Point",
        "coordinates": [
          85.40886913572999,
          0.023776728794650606
        ]
      }
    }
  ]
}